0 FENGYUN 1C DEB
1 36990U 99025EBW 13289.01616989  .00000375  00000-0  45081-3 0   420
2 36990 096.6278 206.8961 0299965 253.3759 103.3951 13.53034492227695
0 FENGYUN 1C DEB
1 36990U 99025EBW 13293.00947647  .00000353  00000-0  42572-3 0   431
2 36990 096.6103 209.5704 0300462 242.9187 114.0780 13.53037296228236
